[{"OBJECT_NAME":"STARLINK-3268","OBJECT_ID":"2021-125AL","EPOCH":"2026-03-09T21:39:24.501888","MEAN_MOTION":15.08832645,"ECCENTRICITY":0.00012008,"INCLINATION":53.2168,"RA_OF_ASC_NODE":238.1677,"ARG_OF_PERICENTER":74.789,"MEAN_ANOMALY":285.3235,"EPHEMERIS_TYPE":0,"CLASSIFICATION_TYPE":"U","NORAD_CAT_ID":50190,"ELEMENT_SET_NO":999,"REV_AT_EPOCH":23676,"BSTAR":-0.00011596384,"MEAN_MOTION_DOT":-2.133e-5,"MEAN_MOTION_DDOT":0},{"OBJECT_NAME":"UNKNOWN","OBJECT_ID":"","EPOCH":"2026-03-09T07:01:12.592704","MEAN_MOTION":13.64489444,"ECCENTRICITY":0.0645911,"INCLINATION":65.6021,"RA_OF_ASC_NODE":22.7331,"ARG_OF_PERICENTER":25.8878,"MEAN_ANOMALY":337.3037,"EPHEMERIS_TYPE":0,"CLASSIFICATION_TYPE":"U","NORAD_CAT_ID":87163,"ELEMENT_SET_NO":999,"REV_AT_EPOCH":58932,"BSTAR":0.0022769,"MEAN_MOTION_DOT":7.8e-5,"MEAN_MOTION_DDOT":0}]
